NORAD_CAT_ID,OBJECT_NAME,OBJECT_TYPE,EPOCH,MEAN_MOTION,ECCENTRICITY,INCLINATION,RA_OF_ASC_NODE,ARG_OF_PERICENTER,MEAN_ANOMALY,BSTAR,MEAN_MOTION_DOT,MEAN_MOTION_DDOT,TLE_LINE0,TLE_LINE1,TLE_LINE2,SEMIMAJOR_AXIS,PERIOD,APOGEE,PERIGEE,DECAYED
55785.0,STARLINK-5818,PAYLOAD,2023-04-01 11:41:07,15.69914643,0.000284,70.0002,74.4138,266.1256,93.9615,-1.913e-05,-2.511e-05,0.0,0 STARLINK-5818,1 55785U 23028AW  23091.48689570 -.00002511  00000-0 -19130-4 0  9996,2 55785  70.0002  74.4138 0002840 266.1256  93.9615 15.69914643  5174,6737.278,91.725,361.057,357.23,0.0
55785.0,STARLINK-5818,PAYLOAD,2023-04-02 09:05:39,15.69935844,0.0002959,69.9999,71.9076,274.5688,85.517,0.00014498,0.00017263,0.0,0 STARLINK-5818,1 55785U 23028AW  23092.37893224  .00017263  00000-0  14498-3 0  9997,2 55785  69.9999  71.9076 0002959 274.5688  85.5170 15.69935844  5317,6737.218,91.723,361.076,357.089,0.0
55785.0,STARLINK-5818,PAYLOAD,2023-04-02 10:37:24,15.69934482,0.0002914,69.9997,71.7277,266.6139,93.4724,0.00012212,0.00014502,0.0,0 STARLINK-5818,1 55785U 23028AW  23092.44264837  .00014502  00000-0  12212-3 0  9992,2 55785  69.9997  71.7277 0002914 266.6139  93.4724 15.69934482  5332,6737.221,91.724,361.05,357.123,0.0
55785.0,STARLINK-5818,PAYLOAD,2023-04-02 21:19:40,15.69948338,0.0003095,70.0014,70.473,264.3823,95.702,0.000122,0.00014496,0.0,0 STARLINK-5818,1 55785U 23028AW  23092.88865885  .00014496  00000-0  12200-3 0  9999,2 55785  70.0014  70.4730 0003095 264.3823  95.7020 15.69948338  5408,6737.182,91.723,361.132,356.962,0.0
55785.0,STARLINK-5818,PAYLOAD,2023-04-03 01:54:56,15.69913211,0.0004839,69.9996,69.936,286.4219,73.6445,-6.8327e-06,-1.035e-05,0.0,0 STARLINK-5818,1 55785U 23028AW  23093.07981549 -.00001035  00000-0 -68327-5 0  9997,2 55785  69.9996  69.9360 0004839 286.4219  73.6445 15.69913211  5427,6737.282,91.725,362.407,355.887,0.0
55785.0,STARLINK-5818,PAYLOAD,2023-04-03 08:01:56,15.69920232,0.0002495,70.0013,69.2191,252.8612,107.231,-2.1711e-05,-2.821e-05,0.0,0 STARLINK-5818,1 55785U 23028AW  23093.33468262 -.00002821  00000-0 -21711-4 0  9997,2 55785  70.0013  69.2191 0002495 252.8612 107.2310 15.69920232  5476,6737.262,91.724,360.808,357.446,0.0
55785.0,STARLINK-5818,PAYLOAD,2023-04-03 15:40:42,15.69931863,0.0003195,70.0003,68.3236,267.8869,92.1961,7.5313e-05,8.855e-05,0.0,0 STARLINK-5818,1 55785U 23028AW  23093.65326404  .00008855  00000-0  75313-4 0  9991,2 55785  70.0003  68.3236 0003195 267.8869  92.1961 15.69931863  5514,6737.229,91.724,361.246,356.941,0.0
55785.0,STARLINK-5818,PAYLOAD,2023-04-04 08:29:58,15.69933079,0.0003233,70.0026,66.3557,284.5915,75.4922,8.7258e-05,0.00010296,0.0,0 STARLINK-5818,1 55785U 23028AW  23094.35415032  .00010296  00000-0  87258-4 0  9998,2 55785  70.0026  66.3557 0003233 284.5915  75.4922 15.69933079  5628,6737.225,91.724,361.269,356.912,0.0
55785.0,STARLINK-5818,PAYLOAD,2023-04-04 20:43:59,15.6992126,0.0003547,70.0013,64.9208,269.8188,90.2601,2.6787e-05,3.009e-05,0.0,0 STARLINK-5818,1 55785U 23028AW  23094.86388467  .00003009  00000-0  26787-4 0  9999,2 55785  70.0013  64.9208 0003547 269.8188  90.2601 15.69921260  5715,6737.259,91.724,361.514,356.735,0.0
55785.0,STARLINK-5818,PAYLOAD,2023-04-05 01:19:15,15.69918095,0.0003414,70.001,64.3839,276.1356,83.945,1.0266e-05,1.022e-05,0.0,0 STARLINK-5818,1 55785U 23028AW  23095.05503800  .00001022  00000-0  10266-4 0  9999,2 55785  70.0010  64.3839 0003414 276.1356  83.9450 15.69918095  5732,6737.268,91.725,361.433,356.833,0.0
55785.0,STARLINK-5818,PAYLOAD,2023-04-05 10:29:45,15.69939071,0.0003379,70.0009,63.3075,266.6116,93.4694,8.4816e-05,0.00010004,0.0,0 STARLINK-5818,1 55785U 23028AW  23095.43733249  .00010004  00000-0  84816-4 0  9995,2 55785  70.0009  63.3075 0003379 266.6116  93.4694 15.69939071  5798,6737.208,91.723,361.35,356.797,0.0
55785.0,STARLINK-5818,PAYLOAD,2023-04-06 00:15:31,15.69923803,0.0003808,70.0034,61.6974,270.5093,89.5666,3.6058e-05,4.125e-05,0.0,0 STARLINK-5818,1 55785U 23028AW  23096.01078651  .00004125  00000-0  36058-4 0  9991,2 55785  70.0034  61.6974 0003808 270.5093  89.5666 15.69923803  5881,6737.252,91.724,361.683,356.551,0.0
55785.0,STARLINK-5818,PAYLOAD,2023-04-06 07:54:17,15.69931547,0.0003078,69.9995,60.7958,268.6727,91.4116,3.1702e-05,3.602e-05,0.0,0 STARLINK-5818,1 55785U 23028AW  23096.32936700  .00003602  00000-0  31702-4 0  9993,2 55785  69.9995  60.7958 0003078 268.6727  91.4116 15.69931547  5940,6737.23,91.724,361.169,357.021,0.0
55785.0,STARLINK-5818,PAYLOAD,2023-04-06 21:40:03,15.69924801,0.0003474,70.001,59.1876,261.9855,98.0946,1.6629e-05,1.787e-05,0.0,0 STARLINK-5818,1 55785U 23028AW  23096.90282030  .00001787  00000-0  16629-4 0  9990,2 55785  70.0010  59.1876 0003474 261.9855  98.0946 15.69924801  6030,6737.249,91.724,361.455,356.774,0.0
55785.0,STARLINK-5818,PAYLOAD,2023-04-07 00:43:33,15.6992637,0.0003041,70.0009,58.827,256.6026,103.4831,2.8123e-05,3.17e-05,0.0,0 STARLINK-5818,1 55785U 23028AW  23097.03025285  .00003170  00000-0  28123-4 0  9992,2 55785  70.0009  58.8270 0003041 256.6026 103.4831 15.69926370  6041,6737.245,91.724,361.158,357.061,0.0
55785.0,STARLINK-5818,PAYLOAD,2023-04-07 06:50:34,15.6994447,0.0003482,70.0015,58.1119,256.6556,103.4252,0.0001713,0.00020453,0.0,0 STARLINK-5818,1 55785U 23028AW  23097.28511750  .00020453  00000-0  17130-3 0  9994,2 55785  70.0015  58.1119 0003482 256.6556 103.4252 15.69944470  6082,6737.193,91.723,361.404,356.712,0.0
55785.0,STARLINK-5818,PAYLOAD,2023-04-07 23:39:50,15.69934656,0.0002869,70.003,56.1419,256.7697,103.3179,6.3533e-06,5.52e-06,0.0,0 STARLINK-5818,1 55785U 23028AW  23097.98600253  .00000552  00000-0  63533-5 0  9996,2 55785  70.0030  56.1419 0002869 256.7697 103.3179 15.69934656  6199,6737.221,91.724,361.019,357.153,0.0
55785.0,STARLINK-5818,PAYLOAD,2023-04-08 08:50:21,15.69928873,0.0003698,70.0019,55.067,261.3836,98.6941,2.2765e-05,2.526e-05,0.0,0 STARLINK-5818,1 55785U 23028AW  23098.36830371  .00002526  00000-0  22765-4 0  9999,2 55785  70.0019  55.0670 0003698 261.3836  98.6941 15.69928873  6255,6737.237,91.724,361.594,356.611,0.0
55785.0,STARLINK-5818,PAYLOAD,2023-04-09 06:14:53,15.69926023,0.0003444,70.0015,52.5609,270.7912,89.2889,3.6039e-05,4.123e-05,0.0,0 STARLINK-5818,1 55785U 23028AW  23099.26033960  .00004123  00000-0  36039-4 0  9992,2 55785  70.0015  52.5609 0003444 270.7912  89.2889 15.69926023  6390,6737.246,91.724,361.431,356.79,0.0
55785.0,STARLINK-5818,PAYLOAD,2023-04-10 08:14:40,15.69923959,0.0002936,70.0024,49.5146,270.7798,89.3062,1.5769e-05,1.684e-05,0.0,0 STARLINK-5818,1 55785U 23028AW  23100.34352520  .00001684  00000-0  15769-4 0  9996,2 55785  70.0024  49.5146 0002936 270.7798  89.3062 15.69923959  6567,6737.252,91.724,361.095,357.138,0.0
55785.0,STARLINK-5818,PAYLOAD,2023-04-10 20:28:41,15.69931185,0.0003301,70.0021,48.0819,264.9797,95.1022,3.3743e-05,3.848e-05,0.0,0 STARLINK-5818,1 55785U 23028AW  23100.85325492  .00003848  00000-0  33743-4 0  9996,2 55785  70.0021  48.0819 0003301 264.9797  95.1022 15.69931185  6657,6737.231,91.724,361.32,356.872,0.0
55785.0,STARLINK-5818,PAYLOAD,2023-04-11 05:39:12,15.69924723,0.0003612,70.0014,47.0072,260.9152,99.1635,1.0408e-05,1.039e-05,0.0,0 STARLINK-5818,1 55785U 23028AW  23101.23555588  .00001039  00000-0  10408-4 0  9993,2 55785  70.0014  47.0072 0003612 260.9152  99.1635 15.69924723  6716,6737.249,91.724,361.548,356.681,0.0
55785.0,STARLINK-5818,PAYLOAD,2023-04-12 13:46:00,15.69916905,0.0003179,70.001,43.2449,265.2527,94.8306,-2.2531e-06,-4.83e-06,0.0,0 STARLINK-5818,1 55785U 23028AW  23102.57361190 -.00000483  00000-0 -22531-5 0  9990,2 55785  70.0010  43.2449 0003179 265.2527  94.8306 15.69916905  6923,6737.272,91.725,361.279,356.995,0.0
55785.0,STARLINK-5818,PAYLOAD,2023-04-13 06:35:16,15.69930333,0.0003074,70.0014,41.275,269.229,90.8554,3.3007e-05,3.759e-05,0.0,0 STARLINK-5818,1 55785U 23028AW  23103.27449254  .00003759  00000-0  33007-4 0  9992,2 55785  70.0014  41.2750 0003074 269.2290  90.8554 15.69930333  7030,6737.233,91.724,361.169,357.027,0.0
55785.0,STARLINK-5818,PAYLOAD,2023-04-13 12:42:16,15.69924241,0.0003361,70.001,40.5577,266.8515,93.2296,1.0047e-05,9.96e-06,0.0,0 STARLINK-5818,1 55785U 23028AW  23103.52936010  .00000996  00000-0  10047-4 0  9990,2 55785  70.0010  40.5577 0003361 266.8515  93.2296 15.69924241  7061,6737.251,91.724,361.38,356.851,0.0
55785.0,STARLINK-5818,PAYLOAD,2023-04-14 05:31:32,15.69933993,0.0003253,70.0005,38.5869,266.758,93.3244,2.4905e-05,2.784e-05,0.0,0 STARLINK-5818,1 55785U 23028AW  23104.23024142  .00002784  00000-0  24905-4 0  9998,2 55785  70.0005  38.5869 0003253 266.7580  93.3244 15.69933993  7188,6737.223,91.724,361.279,356.896,0.0
55785.0,STARLINK-5818,PAYLOAD,2023-04-15 02:56:04,15.69931902,0.0003075,70.0012,36.0788,256.3322,103.7531,3.0249e-05,3.427e-05,0.0,0 STARLINK-5818,1 55785U 23028AW  23105.12227564  .00003427  00000-0  30249-4 0  9993,2 55785  70.0012  36.0788 0003075 256.3322 103.7531 15.69931902  7318,6737.229,91.724,361.166,357.022,0.0
55785.0,STARLINK-5818,PAYLOAD,2023-04-15 05:59:34,15.69932762,0.0002816,70.0018,35.7217,261.7195,98.3681,2.5111e-05,2.809e-05,0.0,0 STARLINK-5818,1 55785U 23028AW  23105.24970848  .00002809  00000-0  25111-4 0  9991,2 55785  70.0018  35.7217 0002816 261.7195  98.3681 15.69932762  7340,6737.226,91.724,360.989,357.194,0.0
55785.0,STARLINK-5818,PAYLOAD,2023-04-15 21:17:06,15.69927705,0.0002794,70.0023,33.9308,247.8105,112.2794,1.4899e-05,1.58e-05,0.0,0 STARLINK-5818,1 55785U 23028AW  23105.88687743  .00001580  00000-0  14899-4 0  9996,2 55785  70.0023  33.9308 0002794 247.8105 112.2794 15.69927705  7441,6737.241,91.724,360.988,357.223,0.0
55785.0,STARLINK-5818,PAYLOAD,2023-04-16 04:55:52,15.6991116,0.0003327,70.0005,33.0313,271.3076,88.7738,-3.5713e-05,-4.502e-05,0.0,0 STARLINK-5818,1 55785U 23028AW  23106.20546501 -.00004502  00000-0 -35713-4 0  9996,2 55785  70.0005  33.0313 0003327 271.3076  88.7738 15.69911160  7487,6737.288,91.725,361.395,356.912,0.0
